*******************************************************************************
 Revised: Jun 17, 2016            Tethys  / (Saturn)                        603
                          http://ssd.jpl.nasa.gov/?sat_phys_par
                            http://ssd.jpl.nasa.gov/?sat_elem

 SATELLITE PHYSICAL PROPERTIES:
  Mean Radius (km)       = 536.3  +- 1.5     Density (g/cm^3)  =  0.956+- 0.008
  Mass (10^22 g)         =  61.76 +- 0.11    Geometric Albedo  =  0.80
  GM (km^3/s^2)          =  41.21 +- 0.007   V(1,0)            = +0.7

 SATELLITE ORBITAL DATA (mean values with respect to local Laplace plane):
  Semi-major axis, a (km)=  294.670(10^3)    Orbital period    =  1.888 d
  Eccentricity, e        =     0.0001        Rotational period = Synchronous
  Inclination, i  (deg)  =     1.091
*******************************************************************************
 
 
*******************************************************************************
Ephemeris / WWW_USER Mon Jan 23 08:01:18 2017 Pasadena, USA      / Horizons    
*******************************************************************************
Target body name: Tethys (603)                    {source: sat389}
Center body name: Saturn (699)                    {source: sat389}
Center-site name: BODYCENTRIC
*******************************************************************************
Start time      : A.D. 2016-Nov-01 00:00:00.0000 UT      
Stop  time      : A.D. 2016-Dec-01 00:00:00.0000 UT      
Step-size       : 60 minutes
*******************************************************************************
Target pole/equ : IAU_TETHYS                      {East-longitude -}
Target radii    : 538.4 x 528.3 x 526.3 km        {Equator, meridian, pole}    
Center geodetic : 0.00000000,0.00000000,0.0000000 {E-lon(deg),Lat(deg),Alt(km)}
Center cylindric: 0.00000000,0.00000000,0.0000000 {E-lon(deg),Dxy(km),Dz(km)}
Center pole/equ : IAU_SATURN                      {East-longitude -}
Center radii    : 60268.0 x 60268.0 x 54364.0 km  {Equator, meridian, pole}    
Target primary  : Saturn
Vis. interferer : TITAN (R_eq= 2575.150) km       {source: sat389}
Rel. light bend : Sun, SATURN                     {source: sat389}
Rel. lght bnd GM: 1.3271E+11, 3.7931E+07 km^3/s^2                              
Atmos refraction: NO (AIRLESS)
RA format       : DEG
Time format     : CAL 
EOP file        : eop.170120.p170413                                           
EOP coverage    : DATA-BASED 1962-JAN-20 TO 2017-JAN-20. PREDICTS-> 2017-APR-12
Units conversion: 1 au= 149597870.700 km, c= 299792.458 km/s, 1 day= 86400.0 s 
Table cut-offs 1: Elevation (-90.0deg=NO ),Airmass     n.a.    , Daylight (NO )
Table cut-offs 2: Solar Elongation (  0.0,180.0=NO ),Local Hour Angle( 0.0=NO )
Table format    : Comma Separated Values (spreadsheet)
*******************************************************************************
 Date__(UT)__HR:MN:SS, , ,   ObsEcLon,   ObsEcLat,
**************************************************
$$SOE
 2016-Nov-12 10:00:00, , ,326.1120095, 13.1059772,
 2016-Nov-12 11:00:00, , ,333.3968314,  9.6244057,
 2016-Nov-12 12:00:00, , ,340.5299373,  5.9935396,
 2016-Nov-12 13:00:00, , ,347.5675613,  2.2718165,
 2016-Nov-12 14:00:00, , ,354.5687878, -1.4839251,
 2016-Nov-12 15:00:00, , ,  1.5936801, -5.2174897,
 2016-Nov-12 16:00:00, , ,  8.7016680, -8.8722633,
 2016-Nov-12 17:00:00, , , 15.9497666,-12.3902199,
 2016-Nov-12 18:00:00, , , 23.3902107,-15.7111817,
 2016-Nov-12 19:00:00, , , 31.0671641,-18.7725589,
 2016-Nov-12 20:00:00, , , 39.0123514,-21.5098424,
 2016-Nov-12 21:00:00, , , 47.2398355,-23.8581395,
 2016-Nov-12 22:00:00, , , 55.7407663,-25.7549707,
 2016-Nov-12 23:00:00, , , 64.4796259,-27.1443076,
 2016-Nov-13 00:00:00, , , 73.3939329,-27.9814280,
 2016-Nov-13 01:00:00, , , 82.3989945,-28.2376844,
 2016-Nov-13 02:00:00, , , 91.3978365,-27.9039943,
 2016-Nov-13 03:00:00, , ,100.2943602,-26.9920195,
 2016-Nov-13 04:00:00, , ,109.0062598,-25.5326595,
 2016-Nov-13 05:00:00, , ,117.4743575,-23.5723370,
 2016-Nov-13 06:00:00, , ,125.6666628,-21.1681577,
 2016-Nov-13 07:00:00, , ,133.5775282,-18.3831216,
 2016-Nov-13 08:00:00, , ,141.2235982,-15.2822302,
 2016-Nov-13 09:00:00, , ,148.6384912,-11.9298561,
 2016-Nov-13 10:00:00, , ,155.8676544, -8.3883544,
 2016-Nov-13 11:00:00, , ,162.9641296, -4.7176812,
 2016-Nov-13 12:00:00, , ,169.9853938, -0.9757283,
 2016-Nov-13 13:00:00, , ,176.9910859,  2.7808953,
 2016-Nov-13 14:00:00, , ,184.0412655,  6.4958532,
 2016-Nov-13 15:00:00, , ,191.1947832, 10.1120273,
 2016-Nov-13 16:00:00, , ,198.5073329, 13.5705916,
 2016-Nov-13 17:00:00, , ,206.0287888, 16.8104156,
 2016-Nov-13 18:00:00, , ,213.7995316, 19.7680364,
 2016-Nov-13 19:00:00, , ,221.8457216, 22.3784891,
 2016-Nov-13 20:00:00, , ,230.1739275, 24.5772739,
 2016-Nov-13 21:00:00, , ,238.7661872, 26.3036138,
 2016-Nov-13 22:00:00, , ,247.5772406, 27.5048594,
 2016-Nov-13 23:00:00, , ,256.5358838, 28.1414423,
 2016-Nov-14 00:00:00, , ,265.5516453, 28.1913352,
 2016-Nov-14 01:00:00, , ,274.5261959, 27.6528184,
 2016-Nov-14 02:00:00, , ,283.3668674, 26.5447046,
 2016-Nov-14 03:00:00, , ,291.9986416, 24.9039475,
 2016-Nov-14 04:00:00, , ,300.3717111, 22.7813795,
 2016-Nov-14 05:00:00, , ,308.4636726, 20.2367551,
 2016-Nov-14 06:00:00, , ,316.2773137, 17.3341987,
 2016-Nov-14 07:00:00, , ,323.8359010, 14.1387350,
 2016-Nov-14 08:00:00, , ,331.1777863, 10.7141124,
 2016-Nov-14 09:00:00, , ,338.3515293,  7.1218023,
 2016-Nov-14 10:00:00, , ,345.4120441,  3.4209058,
 2016-Nov-14 11:00:00, , ,352.4177873, -0.3313237,
 2016-Nov-14 12:00:00, , ,359.4287212, -4.0785928,
 2016-Nov-14 13:00:00, , ,  6.5046677, -7.7645186,
 2016-Nov-14 14:00:00, , , 13.7036261,-11.3315960,
 2016-Nov-14 15:00:00, , , 21.0796265,-14.7203557,
 2016-Nov-14 16:00:00, , , 28.6797523,-17.8689293,
 2016-Nov-14 17:00:00, , , 36.5401001,-20.7132777,
 2016-Nov-14 18:00:00, , , 44.6807602,-23.1883769,
 2016-Nov-14 19:00:00, , , 53.1004380,-25.2306134,
 2016-Nov-14 20:00:00, , , 61.7720357,-26.7814662,
 2016-Nov-14 21:00:00, , , 70.6410821,-27.7921878,
 2016-Nov-14 22:00:00, , , 79.6288319,-28.2287228,
 2016-Nov-14 23:00:00, , , 88.6407218,-28.0757229,
 2016-Nov-15 00:00:00, , , 97.5788691,-27.3385163,
 2016-Nov-15 01:00:00, , ,106.3554717,-26.0424140,
 2016-Nov-15 02:00:00, , ,114.9035290,-24.2295756,
 2016-Nov-15 03:00:00, , ,123.1825746,-21.9543806,
 2016-Nov-15 04:00:00, , ,131.1791949,-19.2785106,
 2016-Nov-15 05:00:00, , ,138.9037446,-16.2667177,
 2016-Nov-15 06:00:00, , ,146.3852272,-12.9837931,
 2016-Nov-15 07:00:00, , ,153.6659825, -9.4928147,
 2016-Nov-15 08:00:00, , ,160.7971310, -5.8544879,
 2016-Nov-15 09:00:00, , ,167.8350898, -2.1272904,
 2016-Nov-15 10:00:00, , ,174.8390604,  1.6318565,
 2016-Nov-15 11:00:00, , ,181.8691665,  5.3666273,
 2016-Nov-15 12:00:00, , ,188.9848364,  9.0202322,
 2016-Nov-15 13:00:00, , ,196.2429969, 12.5344328,
 2016-Nov-15 14:00:00, , ,203.6956671, 15.8488198,
 2016-Nov-15 15:00:00, , ,211.3866129, 18.9005822,
 2016-Nov-15 16:00:00, , ,219.3469221, 21.6250429,
 2016-Nov-15 17:00:00, , ,227.5897459, 23.9572534,
 2016-Nov-15 18:00:00, , ,236.1050660, 25.8348546,
 2016-Nov-15 19:00:00, , ,244.8560460, 27.2021730,
 2016-Nov-15 20:00:00, , ,253.7789377, 28.0151021,
 2016-Nov-15 21:00:00, , ,262.7880954, 28.2458442,
 2016-Nov-15 22:00:00, , ,271.7861369, 27.8863140,
 2016-Nov-15 23:00:00, , ,280.6771986, 26.9491898,
 2016-Nov-16 00:00:00, , ,289.3797767, 25.4662760,
 2016-Nov-16 01:00:00, , ,297.8358493, 23.4846950,
 2016-Nov-16 02:00:00, , ,306.0146826, 21.0620114,
 2016-Nov-16 03:00:00, , ,313.9117812, 18.2614602,
 2016-Nov-16 04:00:00, , ,321.5447227, 15.1481027,
 2016-Nov-16 05:00:00, , ,328.9478077, 11.7862552,
 2016-Nov-16 06:00:00, , ,336.1669370,  8.2381532,
 2016-Nov-16 07:00:00, , ,343.2554248,  4.5636114,
 2016-Nov-16 08:00:00, , ,350.2708874,  0.8203846,
 2016-Nov-16 09:00:00, , ,357.2730089, -2.9350355,
 2016-Nov-16 10:00:00, , ,  4.3218213, -6.6464027,
 2016-Nov-16 11:00:00, , , 11.4760797,-10.2566615,
 2016-Nov-16 12:00:00, , , 18.7913039,-13.7070264,
 2016-Nov-16 13:00:00, , , 26.3170899,-16.9363959,
 2016-Nov-16 14:00:00, , , 34.0934071,-19.8813449,
 2016-Nov-16 15:00:00, , , 42.1458446,-22.4769838,
 2016-Nov-16 16:00:00, , , 50.4802397,-24.6589600,
 2016-Nov-16 17:00:00, , , 59.0777840,-26.3667509,
 2016-Nov-16 18:00:00, , , 67.8923619,-27.5480922,
 2016-Nov-16 19:00:00, , , 76.8520642,-28.1639281,
 2016-Nov-16 20:00:00, , , 85.8660297,-28.1928330,
 2016-Nov-16 21:00:00, , , 94.8359630,-27.6337091,
 2016-Nov-16 22:00:00, , ,103.6696494,-26.5059306,
 2016-Nov-16 23:00:00, , ,112.2928311,-24.8468891,
 2016-Nov-17 00:00:00, , ,120.6565976,-22.7077023,
 2016-Nov-17 01:00:00, , ,128.7394179,-20.1482668,
 2016-Nov-17 02:00:00, , ,136.5448241,-17.2327410,
 2016-Nov-17 03:00:00, , ,144.0966579,-14.0261215,
 2016-Nov-17 04:00:00, , ,151.4336848,-10.5921094,
 2016-Nov-17 05:00:00, , ,158.6047476, -6.9921446,
 2016-Nov-17 06:00:00, , ,165.6649503, -3.2853356,
 2016-Nov-17 07:00:00, , ,172.6728740,  0.4710040,
 2016-Nov-17 08:00:00, , ,179.6885561,  4.2204608,
 2016-Nov-17 09:00:00, , ,186.7718431,  7.9064732,
 2016-Nov-17 10:00:00, , ,193.9806878, 11.4713041,
 2016-Nov-17 11:00:00, , ,201.3689665, 14.8552161,
 2016-Nov-17 12:00:00, , ,208.9834458, 17.9960618,
 2016-Nov-17 13:00:00, , ,216.8596785, 20.8295533,
 2016-Nov-17 14:00:00, , ,225.0169341, 23.2905057,
 2016-Nov-17 15:00:00, , ,233.4528097, 25.3153016,
 2016-Nov-17 16:00:00, , ,242.1388811, 26.8456418,
 2016-Nov-17 17:00:00, , ,251.0193054, 27.8332728,
 2016-Nov-17 18:00:00, , ,260.0141767, 28.2449041,
 2016-Nov-17 19:00:00, , ,269.0282458, 28.0661571,
 2016-Nov-17 20:00:00, , ,277.9635841, 27.3034156,
 2016-Nov-17 21:00:00, , ,286.7329764, 25.9829906,
 2016-Nov-17 22:00:00, , ,295.2704689, 24.1478686,
 2016-Nov-17 23:00:00, , ,303.5368496, 21.8530197,
 2016-Nov-18 00:00:00, , ,311.5199320, 19.1604726,
 2016-Nov-18 01:00:00, , ,319.2311173, 16.1351203,
 2016-Nov-18 02:00:00, , ,326.7002120, 12.8417445,
